CCSDS_OMM_VERS = 2.0
CREATION_DATE  = 
ORIGINATOR     = 

OBJECT_NAME    = COSMOS 2242
OBJECT_ID      = 1993-024A
CENTER_NAME    = EARTH
REF_FRAME      = TEME
TIME_SYSTEM    = UTC
MEAN_ELEMENT_THEORY = SGP/SGP4

EPOCH          = 2026-03-14T22:01:53.907456
MEAN_MOTION    = 14.96572986
ECCENTRICITY   = .00149467
INCLINATION    = 82.5151
RA_OF_ASC_NODE = 261.7140
ARG_OF_PERICENTER = 289.7964
MEAN_ANOMALY   = 70.1646

EPHEMERIS_TYPE = 0
CLASSIFICATION_TYPE = U
NORAD_CAT_ID   = 22626
ELEMENT_SET_NO = 999
REV_AT_EPOCH   = 78117
BSTAR          = .2300708E-3
MEAN_MOTION_DOT = .2648E-4
MEAN_MOTION_DDOT = 0

CCSDS_OMM_VERS = 2.0
CREATION_DATE  = 
ORIGINATOR     = 

OBJECT_NAME    = SL-16 R/B
OBJECT_ID      = 1993-059B
CENTER_NAME    = EARTH
REF_FRAME      = TEME
TIME_SYSTEM    = UTC
MEAN_ELEMENT_THEORY = SGP/SGP4

EPOCH          = 2026-03-14T21:52:47.544960
MEAN_MOTION    = 14.17231640
ECCENTRICITY   = .00182221
INCLINATION    = 70.9930
RA_OF_ASC_NODE = 0.1149
ARG_OF_PERICENTER = 208.8498
MEAN_ANOMALY   = 151.1620

EPHEMERIS_TYPE = 0
CLASSIFICATION_TYPE = U
NORAD_CAT_ID   = 22803
ELEMENT_SET_NO = 999
REV_AT_EPOCH   = 68027
BSTAR          = .64396297E-4
MEAN_MOTION_DOT = .82E-6
MEAN_MOTION_DDOT = 0

CCSDS_OMM_VERS = 2.0
CREATION_DATE  = 
ORIGINATOR     = 

OBJECT_NAME    = ARIANE 40 R/B
OBJECT_ID      = 1993-061H
CENTER_NAME    = EARTH
REF_FRAME      = TEME
TIME_SYSTEM    = UTC
MEAN_ELEMENT_THEORY = SGP/SGP4

EPOCH          = 2026-03-14T22:27:37.980000
MEAN_MOTION    = 14.32863981
ECCENTRICITY   = .00095693
INCLINATION    = 98.4906
RA_OF_ASC_NODE = 142.7197
ARG_OF_PERICENTER = 267.7931
MEAN_ANOMALY   = 92.2157

EPHEMERIS_TYPE = 0
CLASSIFICATION_TYPE = U
NORAD_CAT_ID   = 22830
ELEMENT_SET_NO = 999
REV_AT_EPOCH   = 69485
BSTAR          = .98492587E-4
MEAN_MOTION_DOT = .226E-5
MEAN_MOTION_DDOT = 0

CCSDS_OMM_VERS = 2.0
CREATION_DATE  = 
ORIGINATOR     = 

OBJECT_NAME    = COSMOS 2278
OBJECT_ID      = 1994-023A
CENTER_NAME    = EARTH
REF_FRAME      = TEME
TIME_SYSTEM    = UTC
MEAN_ELEMENT_THEORY = SGP/SGP4

EPOCH          = 2026-03-14T19:57:00.434592
MEAN_MOTION    = 14.14379635
ECCENTRICITY   = .00084146
INCLINATION    = 71.0549
RA_OF_ASC_NODE = 164.3416
ARG_OF_PERICENTER = 3.9199
MEAN_ANOMALY   = 356.1988

EPHEMERIS_TYPE = 0
CLASSIFICATION_TYPE = U
NORAD_CAT_ID   = 23087
ELEMENT_SET_NO = 999
REV_AT_EPOCH   = 64553
BSTAR          = -.11718457E-4
MEAN_MOTION_DOT = -.7E-6
MEAN_MOTION_DDOT = 0

CCSDS_OMM_VERS = 2.0
CREATION_DATE  = 
ORIGINATOR     = 

OBJECT_NAME    = SL-16 R/B
OBJECT_ID      = 1994-023B
CENTER_NAME    = EARTH
REF_FRAME      = TEME
TIME_SYSTEM    = UTC
MEAN_ELEMENT_THEORY = SGP/SGP4

EPOCH          = 2026-03-14T22:42:23.782176
MEAN_MOTION    = 14.15010284
ECCENTRICITY   = .00056347
INCLINATION    = 70.9985
RA_OF_ASC_NODE = 59.8462
ARG_OF_PERICENTER = 280.3798
MEAN_ANOMALY   = 79.6689

EPHEMERIS_TYPE = 0
CLASSIFICATION_TYPE = U
NORAD_CAT_ID   = 23088
ELEMENT_SET_NO = 999
REV_AT_EPOCH   = 64683
BSTAR          = -.56515291E-4
MEAN_MOTION_DOT = -.157E-5
MEAN_MOTION_DDOT = 0

CCSDS_OMM_VERS = 2.0
CREATION_DATE  = 
ORIGINATOR     = 

OBJECT_NAME    = SL-16 R/B
OBJECT_ID      = 1994-074B
CENTER_NAME    = EARTH
REF_FRAME      = TEME
TIME_SYSTEM    = UTC
MEAN_ELEMENT_THEORY = SGP/SGP4

EPOCH          = 2026-03-14T19:40:07.461120
MEAN_MOTION    = 14.79414821
ECCENTRICITY   = .00061437
INCLINATION    = 97.7102
RA_OF_ASC_NODE = 104.4295
ARG_OF_PERICENTER = 192.2225
MEAN_ANOMALY   = 341.0602

EPHEMERIS_TYPE = 0
CLASSIFICATION_TYPE = U
NORAD_CAT_ID   = 23343
ELEMENT_SET_NO = 999
REV_AT_EPOCH   = 68800
BSTAR          = .83591198E-4
MEAN_MOTION_DOT = .574E-5
MEAN_MOTION_DDOT = 0

CCSDS_OMM_VERS = 2.0
CREATION_DATE  = 
ORIGINATOR     = 

OBJECT_NAME    = SL-16 R/B
OBJECT_ID      = 1994-077B
CENTER_NAME    = EARTH
REF_FRAME      = TEME
TIME_SYSTEM    = UTC
MEAN_ELEMENT_THEORY = SGP/SGP4

EPOCH          = 2026-03-14T22:12:59.939136
MEAN_MOTION    = 14.15562715
ECCENTRICITY   = .00027983
INCLINATION    = 70.9852
RA_OF_ASC_NODE = 341.4748
ARG_OF_PERICENTER = 205.5623
MEAN_ANOMALY   = 154.5362

EPHEMERIS_TYPE = 0
CLASSIFICATION_TYPE = U
NORAD_CAT_ID   = 23405
ELEMENT_SET_NO = 999
REV_AT_EPOCH   = 61697
BSTAR          = .14146678E-3
MEAN_MOTION_DOT = .229E-5
MEAN_MOTION_DDOT = 0

CCSDS_OMM_VERS = 2.0
CREATION_DATE  = 
ORIGINATOR     = 

OBJECT_NAME    = ARIANE 40+ R/B
OBJECT_ID      = 1995-021B
CENTER_NAME    = EARTH
REF_FRAME      = TEME
TIME_SYSTEM    = UTC
MEAN_ELEMENT_THEORY = SGP/SGP4

EPOCH          = 2026-03-14T23:32:42.159264
MEAN_MOTION    = 14.39776661
ECCENTRICITY   = .00078299
INCLINATION    = 98.4487
RA_OF_ASC_NODE = 145.3918
ARG_OF_PERICENTER = 122.5430
MEAN_ANOMALY   = 50.2828

EPHEMERIS_TYPE = 0
CLASSIFICATION_TYPE = U
NORAD_CAT_ID   = 23561
ELEMENT_SET_NO = 999
REV_AT_EPOCH   = 62000
BSTAR          = .11492304E-3
MEAN_MOTION_DOT = .317E-5
MEAN_MOTION_DDOT = 0

CCSDS_OMM_VERS = 2.0
CREATION_DATE  = 
ORIGINATOR     = 

OBJECT_NAME    = SL-16 R/B
OBJECT_ID      = 1995-058B
CENTER_NAME    = EARTH
REF_FRAME      = TEME
TIME_SYSTEM    = UTC
MEAN_ELEMENT_THEORY = SGP/SGP4

EPOCH          = 2026-03-14T17:18:08.738208
MEAN_MOTION    = 14.15498764
ECCENTRICITY   = .00105906
INCLINATION    = 71.0224
RA_OF_ASC_NODE = 169.6926
ARG_OF_PERICENTER = 116.6844
MEAN_ANOMALY   = 243.5365

EPHEMERIS_TYPE = 0
CLASSIFICATION_TYPE = U
NORAD_CAT_ID   = 23705
ELEMENT_SET_NO = 999
REV_AT_EPOCH   = 56856
BSTAR          = .15730684E-3
MEAN_MOTION_DOT = .26E-5
MEAN_MOTION_DDOT = 0

CCSDS_OMM_VERS = 2.0
CREATION_DATE  = 
ORIGINATOR     = 

OBJECT_NAME    = SL-16 R/B
OBJECT_ID      = 1996-051B
CENTER_NAME    = EARTH
REF_FRAME      = TEME
TIME_SYSTEM    = UTC
MEAN_ELEMENT_THEORY = SGP/SGP4

EPOCH          = 2026-03-14T16:45:55.421568
MEAN_MOTION    = 14.12417054
ECCENTRICITY   = .00146567
INCLINATION    = 70.7602
RA_OF_ASC_NODE = 164.6377
ARG_OF_PERICENTER = 140.2954
MEAN_ANOMALY   = 219.9242

EPHEMERIS_TYPE = 0
CLASSIFICATION_TYPE = U
NORAD_CAT_ID   = 24298
ELEMENT_SET_NO = 999
REV_AT_EPOCH   = 52235
BSTAR          = .67836233E-4
MEAN_MOTION_DOT = .76E-6
MEAN_MOTION_DDOT = 0

CCSDS_OMM_VERS = 2.0
CREATION_DATE  = 
ORIGINATOR     = 

OBJECT_NAME    = ORBVIEW 2 (SEASTAR)
OBJECT_ID      = 1997-037A
CENTER_NAME    = EARTH
REF_FRAME      = TEME
TIME_SYSTEM    = UTC
MEAN_ELEMENT_THEORY = SGP/SGP4

EPOCH          = 2026-03-14T22:11:03.436512
MEAN_MOTION    = 14.35499159
ECCENTRICITY   = .0002958
INCLINATION    = 98.8576
RA_OF_ASC_NODE = 238.3750
ARG_OF_PERICENTER = 61.2269
MEAN_ANOMALY   = 298.9212

EPHEMERIS_TYPE = 0
CLASSIFICATION_TYPE = U
NORAD_CAT_ID   = 24883
ELEMENT_SET_NO = 999
REV_AT_EPOCH   = 50922
BSTAR          = .12913987E-3
MEAN_MOTION_DOT = .325E-5
MEAN_MOTION_DDOT = 0

CCSDS_OMM_VERS = 2.0
CREATION_DATE  = 
ORIGINATOR     = 

OBJECT_NAME    = SL-16 R/B
OBJECT_ID      = 1998-043G
CENTER_NAME    = EARTH
REF_FRAME      = TEME
TIME_SYSTEM    = UTC
MEAN_ELEMENT_THEORY = SGP/SGP4

EPOCH          = 2026-03-14T20:29:04.051968
MEAN_MOTION    = 14.26051066
ECCENTRICITY   = .00099602
INCLINATION    = 98.8261
RA_OF_ASC_NODE = 27.2537
ARG_OF_PERICENTER = 5.9768
MEAN_ANOMALY   = 354.1528

EPHEMERIS_TYPE = 0
CLASSIFICATION_TYPE = U
NORAD_CAT_ID   = 25400
ELEMENT_SET_NO = 999
REV_AT_EPOCH   = 43972
BSTAR          = .46822461E-4
MEAN_MOTION_DOT = .67E-6
MEAN_MOTION_DDOT = 0

