COSMOS 2242             
1 22626U 93024A   26073.91798504  .00002648  00000+0  23007-3 0  9991
2 22626  82.5151 261.7140 0014946 289.7964  70.1646 14.96572986781177
SL-16 R/B               
1 22803U 93059B   26073.91166140  .00000082  00000+0  64396-4 0  9998
2 22803  70.9930   0.1149 0018222 208.8498 151.1620 14.17231640680272
ARIANE 40 R/B           
1 22830U 93061H   26073.93585625  .00000226  00000+0  98493-4 0  9991
2 22830  98.4906 142.7197 0009569 267.7931  92.2157 14.32863981694851
COSMOS 2278             
1 23087U 94023A   26073.83125503 -.00000070  00000+0 -11718-4 0  9993
2 23087  71.0549 164.3416 0008414   3.9199 356.1988 14.14379635645537
SL-16 R/B               
1 23088U 94023B   26073.94610859 -.00000157  00000+0 -56515-4 0  9999
2 23088  70.9985  59.8462 0005634 280.3798  79.6689 14.15010284646838
SL-16 R/B               
1 23343U 94074B   26073.81953080  .00000574  00000+0  83591-4 0  9996
2 23343  97.7102 104.4295 0006143 192.2225 341.0602 14.79414821688004
SL-16 R/B               
1 23405U 94077B   26073.92569374  .00000229  00000+0  14147-3 0  9996
2 23405  70.9852 341.4748 0002798 205.5623 154.5362 14.15562715616979
ARIANE 40+ R/B          
1 23561U 95021B   26073.98104351  .00000317  00000+0  11492-3 0  9993
2 23561  98.4487 145.3918 0007829 122.5430  50.2828 14.39776661620006
SL-16 R/B               
1 23705U 95058B   26073.72093447  .00000260  00000+0  15731-3 0  9995
2 23705  71.0224 169.6926 0010590 116.6844 243.5365 14.15498764568566
SL-16 R/B               
1 24298U 96051B   26073.69855812  .00000076  00000+0  67836-4 0  9994
2 24298  70.7602 164.6377 0014656 140.2954 219.9242 14.12417054522355
ORBVIEW 2 (SEASTAR)     
1 24883U 97037A   26073.92434533  .00000325  00000+0  12914-3 0  9991
2 24883  98.8576 238.3750 0002958  61.2269 298.9212 14.35499159509229
SL-16 R/B               
1 25400U 98043G   26073.85351912  .00000067  00000+0  46822-4 0  9995
2 25400  98.8261  27.2537 0009960   5.9768 354.1528 14.26051066439726
